start=new Date('2023-06-21T00:00:00.000Z').valueOf();
sats=[{"RCS_SIZE":"LARGE","MEAN_ELEMENT_THEORY":"SGP4","REF_FRAME":"TEME","OBJECT_NAME":"STARLINK-5992","REV_AT_EPOCH":"917","EPHEMERIS_TYPE":"0","ELEMENT_SET_NO":"999","CENTER_NAME":"EARTH","OBJECT_ID":"2023-058M","NORAD_CAT_ID":"56328","GP_ID":"234396419","SEMIMAJOR_AXIS":"6941.140","APOAPSIS":"564.485","PERIAPSIS":"561.526","CLASSIFICATION_TYPE":"U","DECAY_DATE":null,"ECCENTRICITY":"0.00021310","SITE":"AFWTR","INCLINATION":"97.6561","RA_OF_ASC_NODE":"172.8635","TLE_LINE1":"1 56328U 23058M   23171.87518711  .00000222  00000-0  21871-4 0  9993","FILE":"3938544","TLE_LINE2":"2 56328  97.6561 172.8635 0002131  98.6988 261.4477 15.01262065  9173","PERIOD":"95.919","COUNTRY_CODE":"US","MEAN_MOTION_DDOT":"0.0000000000000","MEAN_ANOMALY":"261.4477","ARG_OF_PERICENTER":"98.6988","EPOCH":"2023-06-20T21:00:16.166304","LAUNCH_DATE":"2023-04-27","MEAN_MOTION":"15.01262065","TIME_SYSTEM":"UTC","MEAN_MOTION_DOT":"0.00000222","BSTAR":"0.00002187100000","OBJECT_TYPE":"PAYLOAD"},{"FILE":"3938544","RA_OF_ASC_NODE":"172.8678","TLE_LINE1":"1 56329U 23058N   23171.87148433  .00001527  00000-0  12341-3 0  9994","COUNTRY_CODE":"US","PERIOD":"95.919","TLE_LINE2":"2 56329  97.6556 172.8678 0002098  95.4988 264.6476 15.01265000  9178","MEAN_MOTION_DDOT":"0.0000000000000","MEAN_ANOMALY":"264.6476","LAUNCH_DATE":"2023-04-27","EPOCH":"2023-06-20T20:54:56.246112","ARG_OF_PERICENTER":"95.4988","MEAN_MOTION":"15.01265000","BSTAR":"0.00012341000000","OBJECT_TYPE":"PAYLOAD","TIME_SYSTEM":"UTC","MEAN_MOTION_DOT":"0.00001527","MEAN_ELEMENT_THEORY":"SGP4","RCS_SIZE":"LARGE","REV_AT_EPOCH":"917","OBJECT_NAME":"STARLINK-5984","REF_FRAME":"TEME","OBJECT_ID":"2023-058N","CENTER_NAME":"EARTH","ELEMENT_SET_NO":"999","EPHEMERIS_TYPE":"0","PERIAPSIS":"561.540","APOAPSIS":"564.453","GP_ID":"234397168","NORAD_CAT_ID":"56329","SEMIMAJOR_AXIS":"6941.131","DECAY_DATE":null,"CLASSIFICATION_TYPE":"U","ECCENTRICITY":"0.00020980","INCLINATION":"97.6556","SITE":"AFWTR"},{"MEAN_MOTION":"15.01263857","OBJECT_TYPE":"PAYLOAD","BSTAR":"-0.00002831800000","MEAN_MOTION_DOT":"-0.00000423","TIME_SYSTEM":"UTC","MEAN_ANOMALY":"266.4476","LAUNCH_DATE":"2023-04-27","ARG_OF_PERICENTER":"93.7048","EPOCH":"2023-06-20T21:02:56.349312","MEAN_MOTION_DDOT":"0.0000000000000","FILE":"3938544","RA_OF_ASC_NODE":"172.8613","TLE_LINE1":"1 56330U 23058P   23171.87704108 -.00000423  00000-0 -28318-4 0  9991","COUNTRY_CODE":"US","PERIOD":"95.919","TLE_LINE2":"2 56330  97.6561 172.8613 0002623  93.7048 266.4476 15.01263857  9175","INCLINATION":"97.6561","SITE":"AFWTR","DECAY_DATE":null,"CLASSIFICATION_TYPE":"U","ECCENTRICITY":"0.00026230","OBJECT_ID":"2023-058P","CENTER_NAME":"EARTH","ELEMENT_SET_NO":"999","EPHEMERIS_TYPE":"0","PERIAPSIS":"561.179","APOAPSIS":"564.821","SEMIMAJOR_AXIS":"6941.135","GP_ID":"234397416","NORAD_CAT_ID":"56330","MEAN_ELEMENT_THEORY":"SGP4","RCS_SIZE":"LARGE","REV_AT_EPOCH":"917","REF_FRAME":"TEME","OBJECT_NAME":"STARLINK-5967"},{"REV_AT_EPOCH":"913","OBJECT_NAME":"STARLINK-5991","REF_FRAME":"TEME","MEAN_ELEMENT_THEORY":"SGP4","RCS_SIZE":"LARGE","APOAPSIS":"564.691","PERIAPSIS":"561.332","NORAD_CAT_ID":"56331","GP_ID":"234395668","SEMIMAJOR_AXIS":"6941.146","CENTER_NAME":"EARTH","OBJECT_ID":"2023-058Q","EPHEMERIS_TYPE":"0","ELEMENT_SET_NO":"999","ECCENTRICITY":"0.00024190","CLASSIFICATION_TYPE":"U","DECAY_DATE":null,"INCLINATION":"97.6550","SITE":"AFWTR","PERIOD":"95.919","COUNTRY_CODE":"US","TLE_LINE2":"2 56331  97.6550 172.6124 0002419  94.4215 265.7286 15.01260127  9130","RA_OF_ASC_NODE":"172.6124","TLE_LINE1":"1 56331U 23058Q   23171.59932375  .00000635  00000-0  54060-4 0  9996","FILE":"3938544","MEAN_MOTION_DDOT":"0.0000000000000","LAUNCH_DATE":"2023-04-27","EPOCH":"2023-06-20T14:23:01.572000","ARG_OF_PERICENTER":"94.4215","MEAN_ANOMALY":"265.7286","BSTAR":"0.00005406000000","OBJECT_TYPE":"PAYLOAD","MEAN_MOTION_DOT":"0.00000635","TIME_SYSTEM":"UTC","MEAN_MOTION":"15.01260127"},{"MEAN_MOTION_DDOT":"0.0000000000000","TLE_LINE2":"2 56332  97.6558 172.2764 0002013  98.2222 261.9231 15.01258743  9088","COUNTRY_CODE":"US","PERIOD":"95.920","FILE":"3938135","TLE_LINE1":"1 56332U 23058R   23171.27185889  .00001130  00000-0  92576-4 0  9997","RA_OF_ASC_NODE":"172.2764","TIME_SYSTEM":"UTC","MEAN_MOTION_DOT":"0.00001130","OBJECT_TYPE":"PAYLOAD","BSTAR":"0.00009257600000","MEAN_MOTION":"15.01258743","EPOCH":"2023-06-20T06:31:28.608096","ARG_OF_PERICENTER":"98.2222","LAUNCH_DATE":"2023-04-27","MEAN_ANOMALY":"261.9231","GP_ID":"234362934","SEMIMAJOR_AXIS":"6941.151","NORAD_CAT_ID":"56332","PERIAPSIS":"561.618","APOAPSIS":"564.413","EPHEMERIS_TYPE":"0","ELEMENT_SET_NO":"999","OBJECT_ID":"2023-058R","CENTER_NAME":"EARTH","OBJECT_NAME":"STARLINK-5093","REF_FRAME":"TEME","REV_AT_EPOCH":"908","RCS_SIZE":"LARGE","MEAN_ELEMENT_THEORY":"SGP4","SITE":"AFWTR","INCLINATION":"97.6558","ECCENTRICITY":"0.00020130","DECAY_DATE":null,"CLASSIFICATION_TYPE":"U"},{"INCLINATION":"97.6546","SITE":"AFWTR","ECCENTRICITY":"0.00021540","CLASSIFICATION_TYPE":"U","DECAY_DATE":null,"APOAPSIS":"564.486","PERIAPSIS":"561.496","NORAD_CAT_ID":"56333","GP_ID":"234396669","SEMIMAJOR_AXIS":"6941.126","CENTER_NAME":"EARTH","OBJECT_ID":"2023-058S","ELEMENT_SET_NO":"999","EPHEMERIS_TYPE":"0","REV_AT_EPOCH":"913","OBJECT_NAME":"STARLINK-5553","REF_FRAME":"TEME","MEAN_ELEMENT_THEORY":"SGP4","RCS_SIZE":"LARGE","OBJECT_TYPE":"PAYLOAD","BSTAR":"0.00014823000000","TIME_SYSTEM":"UTC","MEAN_MOTION_DOT":"0.00001846","MEAN_MOTION":"15.01266809","LAUNCH_DATE":"2023-04-27","ARG_OF_PERICENTER":"106.3968","EPOCH":"2023-06-20T14:20:21.820992","MEAN_ANOMALY":"253.7493","MEAN_MOTION_DDOT":"0.0000000000000","PERIOD":"95.919","COUNTRY_CODE":"US","TLE_LINE2":"2 56333  97.6546 172.6148 0002154 106.3968 253.7493 15.01266809  9137","TLE_LINE1":"1 56333U 23058S   23171.59747478  .00001846  00000-0  14823-3 0  9993","RA_OF_ASC_NODE":"172.6148","FILE":"3938544"},{"RA_OF_ASC_NODE":"172.2814","TLE_LINE1":"1 56334U 23058T   23171.26790874  .00000850  00000-0  70739-4 0  9999","FILE":"3938135","PERIOD":"95.919","COUNTRY_CODE":"US","TLE_LINE2":"2 56334  97.6552 172.2814 0002456  96.7933 263.3570 15.01263030  9080","MEAN_MOTION_DDOT":"0.0000000000000","MEAN_ANOMALY":"263.3570","LAUNCH_DATE":"2023-04-27","ARG_OF_PERICENTER":"96.7933","EPOCH":"2023-06-20T06:25:47.315136","MEAN_MOTION":"15.01263030","BSTAR":"0.00007073900000","OBJECT_TYPE":"PAYLOAD","TIME_SYSTEM":"UTC","MEAN_MOTION_DOT":"0.00000850","MEAN_ELEMENT_THEORY":"SGP4","RCS_SIZE":"LARGE","REV_AT_EPOCH":"908","OBJECT_NAME":"STARLINK-5548","REF_FRAME":"TEME","CENTER_NAME":"EARTH","OBJECT_ID":"2023-058T","EPHEMERIS_TYPE":"0","ELEMENT_SET_NO":"999","APOAPSIS":"564.707","PERIAPSIS":"561.298","GP_ID":"234363920","NORAD_CAT_ID":"56334","SEMIMAJOR_AXIS":"6941.138","CLASSIFICATION_TYPE":"U","DECAY_DATE":null,"ECCENTRICITY":"0.00024560","INCLINATION":"97.6552","SITE":"AFWTR"},{"MEAN_MOTION_DDOT":"0.0000000000000","COUNTRY_CODE":"US","PERIOD":"95.919","TLE_LINE2":"2 56335  97.6546 172.6224 0001608 105.9597 254.1805 15.01261300  9133","FILE":"3938544","RA_OF_ASC_NODE":"172.6224","TLE_LINE1":"1 56335U 23058U   23171.59215603 -.00000269  00000-0 -16317-4 0  9996","OBJECT_TYPE":"PAYLOAD","BSTAR":"-0.00001631700000","TIME_SYSTEM":"UTC","MEAN_MOTION_DOT":"-0.00000269","MEAN_MOTION":"15.01261300","LAUNCH_DATE":"2023-04-27","ARG_OF_PERICENTER":"105.9597","EPOCH":"2023-06-20T14:12:42.280992","MEAN_ANOMALY":"254.1805","PERIAPSIS":"561.892","APOAPSIS":"564.124","SEMIMAJOR_AXIS":"6941.143","GP_ID":"234396168","NORAD_CAT_ID":"56335","OBJECT_ID":"2023-058U","CENTER_NAME":"EARTH","ELEMENT_SET_NO":"999","EPHEMERIS_TYPE":"0","REV_AT_EPOCH":"913","OBJECT_NAME":"STARLINK-5559","REF_FRAME":"TEME","MEAN_ELEMENT_THEORY":"SGP4","RCS_SIZE":"LARGE","INCLINATION":"97.6546","SITE":"AFWTR","ECCENTRICITY":"0.00016080","DECAY_DATE":null,"CLASSIFICATION_TYPE":"U"},{"PERIOD":"95.920","COUNTRY_CODE":"US","TLE_LINE2":"2 56336  97.6551 172.6121 0001908 108.8631 251.2800 15.01256549  9132","RA_OF_ASC_NODE":"172.6121","TLE_LINE1":"1 56336U 23058V   23171.59956466  .00000374  00000-0  33703-4 0  9999","FILE":"3938544","MEAN_MOTION_DDOT":"0.0000000000000","LAUNCH_DATE":"2023-04-27","ARG_OF_PERICENTER":"108.8631","EPOCH":"2023-06-20T14:23:22.386624","MEAN_ANOMALY":"251.2800","OBJECT_TYPE":"PAYLOAD","BSTAR":"0.00003370300000","MEAN_MOTION_DOT":"0.00000374","TIME_SYSTEM":"UTC","MEAN_MOTION":"15.01256549","REV_AT_EPOCH":"913","OBJECT_NAME":"STARLINK-5562","REF_FRAME":"TEME","MEAN_ELEMENT_THEORY":"SGP4","RCS_SIZE":"LARGE","APOAPSIS":"564.347","PERIAPSIS":"561.698","NORAD_CAT_ID":"56336","GP_ID":"234396420","SEMIMAJOR_AXIS":"6941.157","CENTER_NAME":"EARTH","OBJECT_ID":"2023-058V","ELEMENT_SET_NO":"999","EPHEMERIS_TYPE":"0","ECCENTRICITY":"0.00019080","CLASSIFICATION_TYPE":"U","DECAY_DATE":null,"INCLINATION":"97.6551","SITE":"AFWTR"},{"COUNTRY_CODE":"US","PERIOD":"95.919","TLE_LINE2":"2 56337  97.6545 172.6224 0001356 112.0510 248.0859 15.01260722  9136","FILE":"3938544","RA_OF_ASC_NODE":"172.6224","TLE_LINE1":"1 56337U 23058W   23171.59191145 -.00000387  00000-0 -25510-4 0  9998","MEAN_MOTION_DDOT":"0.0000000000000","LAUNCH_DATE":"2023-04-27","ARG_OF_PERICENTER":"112.0510","EPOCH":"2023-06-20T14:12:21.149280","MEAN_ANOMALY":"248.0859","OBJECT_TYPE":"PAYLOAD","BSTAR":"-0.00002551000000","MEAN_MOTION_DOT":"-0.00000387","TIME_SYSTEM":"UTC","MEAN_MOTION":"15.01260722","REV_AT_EPOCH":"913","OBJECT_NAME":"STARLINK-5561","REF_FRAME":"TEME","MEAN_ELEMENT_THEORY":"SGP4","RCS_SIZE":"LARGE","PERIAPSIS":"562.068","APOAPSIS":"563.951","GP_ID":"234397169","SEMIMAJOR_AXIS":"6941.145","NORAD_CAT_ID":"56337","OBJECT_ID":"2023-058W","CENTER_NAME":"EARTH","EPHEMERIS_TYPE":"0","ELEMENT_SET_NO":"999","ECCENTRICITY":"0.00013560","DECAY_DATE":null,"CLASSIFICATION_TYPE":"U","INCLINATION":"97.6545","SITE":"AFWTR"}];
